[{"OBJECT_NAME":"FENGYUN 2F DEB","OBJECT_ID":"2012-002D","EPOCH":"2026-03-25T08:41:51.075744","MEAN_MOTION":1.00329853,"ECCENTRICITY":0.02789351,"INCLINATION":8.9179,"RA_OF_ASC_NODE":58.2639,"ARG_OF_PERICENTER":302.5257,"MEAN_ANOMALY":54.8377,"EPHEMERIS_TYPE":0,"CLASSIFICATION_TYPE":"U","NORAD_CAT_ID":43396,"ELEMENT_SET_NO":999,"REV_AT_EPOCH":4192,"BSTAR":0,"MEAN_MOTION_DOT":-3.81e-6,"MEAN_MOTION_DDOT":0},{"OBJECT_NAME":"COSMOS 2526","OBJECT_ID":"2018-037A","EPOCH":"2026-03-27T10:18:01.648800","MEAN_MOTION":1.00272253,"ECCENTRICITY":0.0001048,"INCLINATION":0.0048,"RA_OF_ASC_NODE":211.5628,"ARG_OF_PERICENTER":237.8588,"MEAN_ANOMALY":17.986,"EPHEMERIS_TYPE":0,"CLASSIFICATION_TYPE":"U","NORAD_CAT_ID":43432,"ELEMENT_SET_NO":999,"REV_AT_EPOCH":2914,"BSTAR":0,"MEAN_MOTION_DOT":-3.63e-6,"MEAN_MOTION_DDOT":0},{"OBJECT_NAME":"BREEZE-M R/B","OBJECT_ID":"2018-037B","EPOCH":"2026-03-28T12:58:07.838400","MEAN_MOTION":0.90513913,"ECCENTRICITY":0.0678011,"INCLINATION":7.9191,"RA_OF_ASC_NODE":72.1041,"ARG_OF_PERICENTER":26.309,"MEAN_ANOMALY":337.0751,"EPHEMERIS_TYPE":0,"CLASSIFICATION_TYPE":"U","NORAD_CAT_ID":43433,"ELEMENT_SET_NO":999,"REV_AT_EPOCH":2647,"BSTAR":0,"MEAN_MOTION_DOT":-1.57e-6,"MEAN_MOTION_DDOT":0},{"OBJECT_NAME":"APSTAR-6C","OBJECT_ID":"2018-041A","EPOCH":"2026-03-29T05:06:47.851776","MEAN_MOTION":1.00270807,"ECCENTRICITY":0.0002569,"INCLINATION":0.0098,"RA_OF_ASC_NODE":323.799,"ARG_OF_PERICENTER":26.8263,"MEAN_ANOMALY":46.6992,"EPHEMERIS_TYPE":0,"CLASSIFICATION_TYPE":"U","NORAD_CAT_ID":43450,"ELEMENT_SET_NO":999,"REV_AT_EPOCH":2900,"BSTAR":0,"MEAN_MOTION_DOT":0,"MEAN_MOTION_DDOT":0},{"OBJECT_NAME":"TITAN 3C TRANSTAGE DEB","OBJECT_ID":"1969-013L","EPOCH":"2026-03-28T14:24:31.150656","MEAN_MOTION":1.07383303,"ECCENTRICITY":0.07453635,"INCLINATION":1.4243,"RA_OF_ASC_NODE":142.001,"ARG_OF_PERICENTER":326.6838,"MEAN_ANOMALY":29.3516,"EPHEMERIS_TYPE":0,"CLASSIFICATION_TYPE":"U","NORAD_CAT_ID":43453,"ELEMENT_SET_NO":999,"REV_AT_EPOCH":3117,"BSTAR":0,"MEAN_MOTION_DOT":-1.97e-6,"MEAN_MOTION_DDOT":0},{"OBJECT_NAME":"TITAN 3C TRANSTAGE DEB","OBJECT_ID":"1969-013M","EPOCH":"2026-03-28T05:59:42.561888","MEAN_MOTION":1.02846774,"ECCENTRICITY":0.0546439,"INCLINATION":0.9828,"RA_OF_ASC_NODE":131.5183,"ARG_OF_PERICENTER":339.5024,"MEAN_ANOMALY":254.8628,"EPHEMERIS_TYPE":0,"CLASSIFICATION_TYPE":"U","NORAD_CAT_ID":43454,"ELEMENT_SET_NO":999,"REV_AT_EPOCH":2980,"BSTAR":0,"MEAN_MOTION_DOT":-3.24e-6,"MEAN_MOTION_DDOT":0},{"OBJECT_NAME":"TITAN 3C TRANSTAGE DEB","OBJECT_ID":"1969-013P","EPOCH":"2026-03-29T00:11:35.169216","MEAN_MOTION":1.02716425,"ECCENTRICITY":0.0841463,"INCLINATION":1.7894,"RA_OF_ASC_NODE":48.8186,"ARG_OF_PERICENTER":30.168,"MEAN_ANOMALY":334.792,"EPHEMERIS_TYPE":0,"CLASSIFICATION_TYPE":"U","NORAD_CAT_ID":43456,"ELEMENT_SET_NO":999,"REV_AT_EPOCH":590,"BSTAR":0,"MEAN_MOTION_DOT":-1.8e-6,"MEAN_MOTION_DDOT":0},{"OBJECT_NAME":"BANGABANDHUSAT-1","OBJECT_ID":"2018-044A","EPOCH":"2026-03-28T23:54:28.032192","MEAN_MOTION":1.00272031,"ECCENTRICITY":0.0002276,"INCLINATION":0.0251,"RA_OF_ASC_NODE":110.519,"ARG_OF_PERICENTER":260.4722,"MEAN_ANOMALY":293.1168,"EPHEMERIS_TYPE":0,"CLASSIFICATION_TYPE":"U","NORAD_CAT_ID":43463,"ELEMENT_SET_NO":999,"REV_AT_EPOCH":2890,"BSTAR":0,"MEAN_MOTION_DOT":-3.82e-6,"MEAN_MOTION_DDOT":0},{"OBJECT_NAME":"SES-12","OBJECT_ID":"2018-049A","EPOCH":"2026-03-29T01:30:18.838656","MEAN_MOTION":1.00271607,"ECCENTRICITY":0.0001998,"INCLINATION":0.0425,"RA_OF_ASC_NODE":31.214,"ARG_OF_PERICENTER":271.9611,"MEAN_ANOMALY":0.8604,"EPHEMERIS_TYPE":0,"CLASSIFICATION_TYPE":"U","NORAD_CAT_ID":43488,"ELEMENT_SET_NO":999,"REV_AT_EPOCH":2861,"BSTAR":0,"MEAN_MOTION_DOT":-2.89e-6,"MEAN_MOTION_DDOT":0},{"OBJECT_NAME":"FENGYUN 2H","OBJECT_ID":"2018-050A","EPOCH":"2026-03-29T03:08:29.200128","MEAN_MOTION":1.00270296,"ECCENTRICITY":0.0001679,"INCLINATION":2.8245,"RA_OF_ASC_NODE":80.0221,"ARG_OF_PERICENTER":173.0326,"MEAN_ANOMALY":59.6636,"EPHEMERIS_TYPE":0,"CLASSIFICATION_TYPE":"U","NORAD_CAT_ID":43491,"ELEMENT_SET_NO":999,"REV_AT_EPOCH":2863,"BSTAR":0,"MEAN_MOTION_DOT":-1.44e-6,"MEAN_MOTION_DDOT":0},{"OBJECT_NAME":"FENGYUN 2H AKM","OBJECT_ID":"2018-050C","EPOCH":"2026-03-29T03:26:48.786144","MEAN_MOTION":1.00076614,"ECCENTRICITY":0.0088878,"INCLINATION":4.6631,"RA_OF_ASC_NODE":77.6142,"ARG_OF_PERICENTER":322.663,"MEAN_ANOMALY":36.9569,"EPHEMERIS_TYPE":0,"CLASSIFICATION_TYPE":"U","NORAD_CAT_ID":43497,"ELEMENT_SET_NO":999,"REV_AT_EPOCH":2850,"BSTAR":0,"MEAN_MOTION_DOT":1.01e-6,"MEAN_MOTION_DDOT":0},{"OBJECT_NAME":"TITAN 3C TRANSTAGE DEB","OBJECT_ID":"1969-013S","EPOCH":"2026-03-28T02:03:57.654144","MEAN_MOTION":0.97798405,"ECCENTRICITY":0.0213625,"INCLINATION":1.325,"RA_OF_ASC_NODE":60.6528,"ARG_OF_PERICENTER":46.9681,"MEAN_ANOMALY":315.572,"EPHEMERIS_TYPE":0,"CLASSIFICATION_TYPE":"U","NORAD_CAT_ID":43514,"ELEMENT_SET_NO":999,"REV_AT_EPOCH":87756,"BSTAR":0,"MEAN_MOTION_DOT":-1.34e-6,"MEAN_MOTION_DDOT":0},{"OBJECT_NAME":"BEIDOU-2 IGSO-7","OBJECT_ID":"2018-057A","EPOCH":"2026-03-27T15:08:38.812992","MEAN_MOTION":1.00275701,"ECCENTRICITY":0.01017729,"INCLINATION":55.1838,"RA_OF_ASC_NODE":163.7722,"ARG_OF_PERICENTER":237.2605,"MEAN_ANOMALY":124.1194,"EPHEMERIS_TYPE":0,"CLASSIFICATION_TYPE":"U","NORAD_CAT_ID":43539,"ELEMENT_SET_NO":999,"REV_AT_EPOCH":2831,"BSTAR":0,"MEAN_MOTION_DOT":-1.68e-6,"MEAN_MOTION_DDOT":0},{"OBJECT_NAME":"TELSTAR 19V","OBJECT_ID":"2018-059A","EPOCH":"2026-03-29T02:55:38.525952","MEAN_MOTION":1.00271693,"ECCENTRICITY":9.32e-5,"INCLINATION":0.0185,"RA_OF_ASC_NODE":183.0832,"ARG_OF_PERICENTER":251.5816,"MEAN_ANOMALY":92.7622,"EPHEMERIS_TYPE":0,"CLASSIFICATION_TYPE":"U","NORAD_CAT_ID":43562,"ELEMENT_SET_NO":999,"REV_AT_EPOCH":2834,"BSTAR":0,"MEAN_MOTION_DOT":-2.99e-6,"MEAN_MOTION_DDOT":0},{"OBJECT_NAME":"TELKOM 4 (MERAH PUTIH)","OBJECT_ID":"2018-064A","EPOCH":"2026-03-29T01:34:03.480384","MEAN_MOTION":1.00272075,"ECCENTRICITY":0.0002462,"INCLINATION":0.0093,"RA_OF_ASC_NODE":197.1644,"ARG_OF_PERICENTER":214.6334,"MEAN_ANOMALY":266.1821,"EPHEMERIS_TYPE":0,"CLASSIFICATION_TYPE":"U","NORAD_CAT_ID":43587,"ELEMENT_SET_NO":999,"REV_AT_EPOCH":2807,"BSTAR":0,"MEAN_MOTION_DOT":-3.63e-6,"MEAN_MOTION_DDOT":0},{"OBJECT_NAME":"TELSTAR 18V","OBJECT_ID":"2018-069A","EPOCH":"2026-03-28T23:59:50.015616","MEAN_MOTION":1.00271136,"ECCENTRICITY":0.0002093,"INCLINATION":0.0161,"RA_OF_ASC_NODE":245.5226,"ARG_OF_PERICENTER":112.5391,"MEAN_ANOMALY":326.2874,"EPHEMERIS_TYPE":0,"CLASSIFICATION_TYPE":"U","NORAD_CAT_ID":43611,"ELEMENT_SET_NO":999,"REV_AT_EPOCH":2783,"BSTAR":0,"MEAN_MOTION_DOT":-3.13e-6,"MEAN_MOTION_DDOT":0},{"OBJECT_NAME":"AZERSPACE 2 (IS-38)","OBJECT_ID":"2018-074A","EPOCH":"2026-03-29T02:58:45.132672","MEAN_MOTION":1.00270307,"ECCENTRICITY":0.0001426,"INCLINATION":0.0198,"RA_OF_ASC_NODE":221.0109,"ARG_OF_PERICENTER":134.2853,"MEAN_ANOMALY":281.029,"EPHEMERIS_TYPE":0,"CLASSIFICATION_TYPE":"U","NORAD_CAT_ID":43632,"ELEMENT_SET_NO":999,"REV_AT_EPOCH":2764,"BSTAR":0,"MEAN_MOTION_DOT":1.17e-6,"MEAN_MOTION_DDOT":0},{"OBJECT_NAME":"HORIZONS-3E","OBJECT_ID":"2018-074B","EPOCH":"2026-03-28T20:43:16.444128","MEAN_MOTION":1.00270217,"ECCENTRICITY":9.57e-5,"INCLINATION":0.0174,"RA_OF_ASC_NODE":6.2567,"ARG_OF_PERICENTER":301.1616,"MEAN_ANOMALY":358.6615,"EPHEMERIS_TYPE":0,"CLASSIFICATION_TYPE":"U","NORAD_CAT_ID":43633,"ELEMENT_SET_NO":999,"REV_AT_EPOCH":2753,"BSTAR":0,"MEAN_MOTION_DOT":-5.1e-7,"MEAN_MOTION_DDOT":0},{"OBJECT_NAME":"FENGYUN 2H DEB","OBJECT_ID":"2018-050D","EPOCH":"2026-03-28T13:00:56.232000","MEAN_MOTION":1.00296737,"ECCENTRICITY":0.0074294,"INCLINATION":4.6936,"RA_OF_ASC_NODE":77.2025,"ARG_OF_PERICENTER":271.0179,"MEAN_ANOMALY":88.3566,"EPHEMERIS_TYPE":0,"CLASSIFICATION_TYPE":"U","NORAD_CAT_ID":43645,"ELEMENT_SET_NO":999,"REV_AT_EPOCH":2811,"BSTAR":0,"MEAN_MOTION_DOT":6.2e-7,"MEAN_MOTION_DDOT":0},{"OBJECT_NAME":"FENGYUN 2G DEB","OBJECT_ID":"2014-090D","EPOCH":"2026-03-28T10:50:15.102816","MEAN_MOTION":1.00213092,"ECCENTRICITY":0.0226953,"INCLINATION":7.339,"RA_OF_ASC_NODE":69.2451,"ARG_OF_PERICENTER":287.2517,"MEAN_ANOMALY":70.3769,"EPHEMERIS_TYPE":0,"CLASSIFICATION_TYPE":"U","NORAD_CAT_ID":43646,"ELEMENT_SET_NO":999,"REV_AT_EPOCH":4089,"BSTAR":0,"MEAN_MOTION_DOT":-1.85e-6,"MEAN_MOTION_DDOT":0},{"OBJECT_NAME":"AEHF-4 (USA 288)","OBJECT_ID":"2018-079A","EPOCH":"2026-03-29T02:26:35.939040","MEAN_MOTION":1.00276665,"ECCENTRICITY":0.0063903,"INCLINATION":1.4228,"RA_OF_ASC_NODE":356.932,"ARG_OF_PERICENTER":358.9209,"MEAN_ANOMALY":159.662,"EPHEMERIS_TYPE":0,"CLASSIFICATION_TYPE":"U","NORAD_CAT_ID":43651,"ELEMENT_SET_NO":999,"REV_AT_EPOCH":2749,"BSTAR":0,"MEAN_MOTION_DOT":-2.94e-6,"MEAN_MOTION_DDOT":0},{"OBJECT_NAME":"BEIDOU-3 G1","OBJECT_ID":"2018-085A","EPOCH":"2026-03-29T05:08:25.196064","MEAN_MOTION":1.00269245,"ECCENTRICITY":0.000156,"INCLINATION":2.8726,"RA_OF_ASC_NODE":99.6029,"ARG_OF_PERICENTER":22.3478,"MEAN_ANOMALY":281.7423,"EPHEMERIS_TYPE":0,"CLASSIFICATION_TYPE":"U","NORAD_CAT_ID":43683,"ELEMENT_SET_NO":999,"REV_AT_EPOCH":2725,"BSTAR":0,"MEAN_MOTION_DOT":-2.95e-6,"MEAN_MOTION_DDOT":0},{"OBJECT_NAME":"GSAT-29","OBJECT_ID":"2018-089A","EPOCH":"2026-03-29T03:01:37.358112","MEAN_MOTION":1.00270763,"ECCENTRICITY":0.0002253,"INCLINATION":0.0151,"RA_OF_ASC_NODE":116.7892,"ARG_OF_PERICENTER":249.6969,"MEAN_ANOMALY":280.4699,"EPHEMERIS_TYPE":0,"CLASSIFICATION_TYPE":"U","NORAD_CAT_ID":43698,"ELEMENT_SET_NO":999,"REV_AT_EPOCH":2698,"BSTAR":0,"MEAN_MOTION_DOT":6.6e-7,"MEAN_MOTION_DDOT":0},{"OBJECT_NAME":"ES'HAIL 2","OBJECT_ID":"2018-090A","EPOCH":"2026-03-29T02:53:15.660096","MEAN_MOTION":1.00274427,"ECCENTRICITY":0.0001121,"INCLINATION":0.0173,"RA_OF_ASC_NODE":118.1117,"ARG_OF_PERICENTER":252.219,"MEAN_ANOMALY":245.3126,"EPHEMERIS_TYPE":0,"CLASSIFICATION_TYPE":"U","NORAD_CAT_ID":43700,"ELEMENT_SET_NO":999,"REV_AT_EPOCH":2687,"BSTAR":0,"MEAN_MOTION_DOT":1.25e-6,"MEAN_MOTION_DDOT":0}]
